satname,norad_id,inclination_deg,eccentricity,mean_motion_rev_per_day,perigee_km,apogee_km,l1,l2
STARLINK-1255,45399,53.0441,0.0004519,15.48271021,418.71086546521565,424.8566338387518,1 45399U 20019AR  26049.66742377  .00086161  00000+0  15966-2 0  9995,2 45399  53.0441 194.0303 0004519 182.3625 177.7361 15.48271021327482
STARLINK-1260,45404,53.1608,0.0001176,15.30179168,474.47130920376276,476.0832322402375,1 45404U 20019AW  26049.75644824  .00002333  00000+0  90916-4 0  9999,2 45404  53.1608 217.1835 0001176 122.8290 237.2824 15.30179168327076
STARLINK-1263,45405,53.161,0.0001294,15.3019524,474.34245636128617,476.11610755505626,1 45405U 20019AX  26049.81017732  .00000401  00000+0  25676-4 0  9994,2 45405  53.1610 216.9593 0001294  93.9000 266.2149 15.30195240327088
STARLINK-1265,45406,53.1607,0.0001167,15.3019296,474.43630103138184,476.03587831051027,1 45406U 20019AY  26049.75961945  .00000396  00000+0  25492-4 0  9991,2 45406  53.1607 217.2719 0001167 105.0825 255.0305 15.30192960327073
STARLINK-1278,45408,53.0475,0.00039,15.51880903,408.586787115677,413.88249699647986,1 45408U 20019BA  26049.74250403  .00094552  00000+0  15401-2 0  9996,2 45408  53.0475 221.8448 0003900 132.4513 227.6826 15.51880903327013
STARLINK-1296,45412,53.1598,0.0001195,15.30194345,474.4129766919659,476.05093187204056,1 45412U 20019BE  26049.75328753  .00000488  00000+0  28598-4 0  9994,2 45412  53.1598 217.2084 0001195 102.6225 257.4909 15.30194345327077
STARLINK-1298,45413,53.0392,0.0006962,15.86793093,306.6234054337883,315.9377504693275,1 45413U 20019BF  26049.91671296  .00210983  00000+0  78926-3 0  9998,2 45413  53.0392 149.6496 0006962 295.5429 194.0598 15.86793093  5988
STARLINK-1309,45414,53.0692,0.0001264,15.511321,412.5610420870498,414.2779475689422,1 45414U 20019BG  26049.77041318  .00087258  00000+0  14620-2 0  9996,2 45414  53.0692 214.7459 0001264 352.3172   7.7817 15.51132100327093
STARLINK-1316,45415,53.1609,0.0001383,15.30194284,474.28431546656975,476.1799573697026,1 45415U 20019BH  26049.73327421  .00001826  00000+0  73785-4 0  9991,2 45415  53.1609 217.3482 0001383  86.1226 273.9933 15.30194284327096
STARLINK-1318,45416,53.032,0.0007273,16.00854727,267.2138578939721,276.88722068862535,1 45416U 20019BJ  26049.54669377  .00565850  15391-3  10288-2 0  9992,2 45416  53.0320 136.9484 0007273 342.9935  17.0849 16.00854727328185
STARLINK-1286,45417,53.0487,0.0001934,15.49357886,417.2888198528699,419.9177990045564,1 45417U 20019BK  26049.71491798  .00029603  00000+0  53732-3 0  9992,2 45417  53.0487 221.7854 0001934  82.3795 277.7432 15.49357886327280
STARLINK-1308,45419,53.054,0.0001432,15.43864739,433.74025528285347,435.6914563407572,1 45419U 20019BM  26049.84275446  .00086890  00000+0  18731-2 0  9998,2 45419  53.0540 242.4012 0001432 135.2434 224.8687 15.43864739326759
STARLINK-1329,45531,53.0513,0.0003812,15.52347934,407.28524200723314,412.46042070265867,1 45531U 20025A   26049.91671296  .00067431  00000+0  10860-2 0  9996,2 45531  53.0513 172.0003 0003812 196.9661  96.1609 15.52347934  5898
STARLINK-1338,45532,53.0514,0.0004189,15.51065761,410.7680789857486,416.4582072556559,1 45532U 20025B   26049.58659269  .00083048  00000+0  13956-2 0  9997,2 45532  53.0514 176.7800 0004189 255.1147 104.9398 15.51065761322430
STARLINK-1350,45535,53.0726,0.0001129,15.35568241,458.4612442273692,460.0051224147619,1 45535U 20025E   26049.65873413  .00010878  00000+0  32058-3 0  9993,2 45535  53.0726 122.4837 0001129  59.5887 300.5226 15.35568241323230
STARLINK-1362,45538,53.1588,0.0001392,15.29351291,476.79599382925153,478.70467286285566,1 45538U 20025H   26049.64709573  .00000509  00000+0  29970-4 0  9990,2 45538  53.1588 189.4272 0001392  67.6791 292.4357 15.29351291322266
STARLINK-1368,45540,53.1586,0.0001854,15.29648551,475.59117453647104,478.1330081995493,1 45540U 20025K   26049.92006426  .00062216  00000+0  21311-2 0  9993,2 45540  53.1586 188.5087 0001854 111.9674 248.1524 15.29648551322292
STARLINK-1371,45542,53.0522,0.000317,15.4393028,432.3634340655035,436.68266053549087,1 45542U 20025M   26049.86374052  .00033157  00000+0  72371-3 0  9996,2 45542  53.0522 179.1283 0003170 202.4954 157.5913 15.43930280322426
STARLINK-1372,45543,53.1617,0.0001325,15.30187931,474.34303159074443,476.1591794387068,1 45543U 20025N   26049.70100274  .00000240  00000+0  20249-4 0  9998,2 45543  53.1617 189.2206 0001325 102.2236 257.8913 15.30187931321369
STARLINK-1373,45544,53.051,0.000429,15.46969931,422.67716157595805,428.51476445822755,1 45544U 20025P   26049.59841151  .00075915  00000+0  14747-2 0  9997,2 45544  53.0510 180.4334 0004290 282.8678  77.1850 15.46969931322386
STARLINK-1294,45551,53.0289,0.0009114,15.9552357,280.7814366317307,292.93038571021225,1 45551U 20025W   26049.91671296  .00446694  91681-4  10942-2 0  9991,2 45551  53.0289  71.2887 0009114  38.6081 266.9461 15.95523570  6050
STARLINK-1327,45555,53.0493,0.0003693,15.50206967,413.6121513754024,418.6303905343302,1 45555U 20025AA  26049.52670012  .00086546  00000+0  14984-2 0  9993,2 45555  53.0493 158.8595 0003693 336.3529  23.7309 15.50206967322678
STARLINK-1356,45564,53.0533,0.0004798,15.42816457,434.5312595909154,441.0718342205255,1 45564U 20025AK  26049.82532612  .00042223  00000+0  95289-3 0  9991,2 45564  53.0533 163.5057 0004798 329.6797  30.3929 15.42816457322638
STARLINK-1357,45565,53.0551,0.0002537,15.51659242,410.15859242704846,413.60384767190135,1 45565U 20025AL  26049.54198045  .00180656  00000+0  29272-2 0  9990,2 45565  53.0551 130.3564 0002537 353.1622   6.9351 15.51659242323087
STARLINK-1361,45567,53.0515,0.0006143,15.44447232,428.8186727624188,437.18683906653496,1 45567U 20025AN  26049.91671296  .00054031  00000+0  11496-2 0  9993,2 45567  53.0515 163.4323 0006143 322.8951 262.2721 15.44447232  5838
STARLINK-1363,45568,53.0451,0.0007829,15.72396436,346.7810826010518,357.3192096344428,1 45568U 20025AP  26049.91671296  .00048986  00000+0  36300-3 0  9998,2 45568  53.0451 131.1710 0007829 350.8047  54.9317 15.72396436  5959
STARLINK-1366,45569,53.0453,0.0007582,15.71998767,348.08143480984563,358.28881167753207,1 45569U 20025AQ  26049.91671296  .00070107  00000+0  52507-3 0  9996,2 45569  53.0453 131.8533 0007582 346.2930  18.8166 15.71998767  5706
STARLINK-1376,45570,53.1611,0.0001414,15.29351242,476.78105729692834,478.71990227621063,1 45570U 20025AR  26049.63690919  .00000275  00000+0  21864-4 0  9992,2 45570  53.1611 166.1902 0001414  65.5152 294.5995 15.29351242322586
STARLINK-1320,45572,53.0491,0.0007819,15.64767096,368.6292465092929,379.18809552963376,1 45572U 20025AT  26049.48027897  .00105924  00000+0  10589-2 0  9993,2 45572  53.0491  80.2684 0007819 337.8896  22.1780 15.64767096323799
STARLINK-1321,45573,53.0508,0.0002515,15.45078312,429.43544237729475,432.8605127210021,1 45573U 20025AU  26049.56592913  .00072717  00000+0  15085-2 0  9998,2 45573  53.0508 149.7844 0002515 315.3708  44.7095 15.45078312322501
STARLINK-1331,45578,53.0551,0.0001868,15.45111377,429.7788762431619,432.32278881739603,1 45578U 20025AZ  26049.83168133  .00071747  00000+0  14870-2 0  9999,2 45578  53.0551 155.1787 0001868  37.2587 322.8548 15.45111377322766
STARLINK-1333,45580,53.1615,0.0001435,15.30181391,474.2871691067785,476.25409709747873,1 45580U 20025BB  26049.55614218  .00003323  00000+0  12434-3 0  9991,2 45580  53.1615 166.6817 0001435  88.6841 271.4324 15.30181391322572
STARLINK-1335,45581,53.0565,0.0001375,15.06400437,546.257983353984,548.1624538390979,1 45581U 20025BC  26049.62191435  .00000737  00000+0  68340-4 0  9995,2 45581  53.0565 162.2168 0001375  91.8249 268.2898 15.06400437322633
STARLINK-1337,45582,53.055,0.000226,15.54683695,401.5396915637075,404.6047981423817,1 45582U 20025BD  26049.87060926  .00081619  00000+0  12044-2 0  9999,2 45582  53.0550 152.9281 0002260  33.7948 326.3206 15.54683695322782
STARLINK-1347,45586,53.0479,0.0005135,15.50343728,412.2330558219346,419.21034870916174,1 45586U 20025BH  26049.68617759  .00073423  00000+0  12681-2 0  9995,2 45586  53.0479 120.9680 0005135 331.7801  28.2928 15.50343728323211
STARLINK-1364,45589,53.052,0.0005224,15.46160192,424.41569849644384,431.5267203536514,1 45589U 20025BL  26049.57400263  .00074510  00000+0  14885-2 0  9992,2 45589  53.0520 154.6125 0005224 342.2528  17.8295 15.46160192322735
STARLINK-1365,45590,53.0532,6.2e-05,15.43137137,436.4347024512499,437.2797617360302,1 45590U 20025BM  26049.76879480  .00042532  00000+0  94976-3 0  9995,2 45590  53.0532 183.5244 0000620 270.0734  90.0200 15.43137137322363
STARLINK-1443,45660,53.0556,7.78e-05,15.07491079,543.3310429079229,544.4081071309947,1 45660U 20035D   26049.84719951  .00378763  00000+0  23411-1 0  9991,2 45660  53.0556 151.2023 0000778 116.0108 244.0961 15.07491079315895
STARLINK-1446,45663,53.0245,0.0001538,15.42023013,439.0907780331172,441.18807986266256,1 45663U 20035G   26049.37240820  .00016466  00000+0  38874-3 0  9996,2 45663  53.0245  91.0734 0001538 182.6126 177.4870 15.42023013316692
STARLINK-1448,45665,53.0524,0.0005323,15.4851854,417.43990758266955,424.6783317716772,1 45665U 20035J   26049.89068889  .00077255  00000+0  14215-2 0  9993,2 45665  53.0524 142.9740 0005323  11.5488 348.5640 15.48518540316005
STARLINK-1451,45668,53.053,7.97e-05,15.09060252,538.5189471792683,539.6215500146936,1 45668U 20035M   26049.54622389  .00023968  00000+0  15097-2 0  9990,2 45668  53.0530 152.4203 0000797 254.3206 105.7697 15.09060252315856
STARLINK-1452,45669,53.0332,0.0007613,15.41884381,435.3570488007099,445.7391787549477,1 45669U 20035N   26049.44722978  .00065214  00000+0  15077-2 0  9993,2 45669  53.0332 113.1798 0007613 336.6160  23.4497 15.41884381316394
STARLINK-1453,45670,53.049,0.0008056,15.48756385,414.8861213018308,425.83986449038457,1 45670U 20035P   26049.91671296  .00121163  00000+0  21926-2 0  9999,2 45670  53.0490 103.4633 0008056 331.0936 217.1662 15.48756385  5944
